[{"OBJECT_NAME":"HULIANWANG DIGUI-98","OBJECT_ID":"2025-258C","EPOCH":"2026-03-09T22:02:50.807040","MEAN_MOTION":13.29334487,"ECCENTRICITY":5.42e-5,"INCLINATION":50.0045,"RA_OF_ASC_NODE":291.8957,"ARG_OF_PERICENTER":123.7689,"MEAN_ANOMALY":236.3235,"EPHEMERIS_TYPE":0,"CLASSIFICATION_TYPE":"U","NORAD_CAT_ID":66414,"ELEMENT_SET_NO":999,"REV_AT_EPOCH":1652,"BSTAR":0.00013036949,"MEAN_MOTION_DOT":-6.4e-7,"MEAN_MOTION_DDOT":0},{"OBJECT_NAME":"DELTA 1 DEB","OBJECT_ID":"1966-087E","EPOCH":"2026-03-09T12:12:12.925152","MEAN_MOTION":13.25110686,"ECCENTRICITY":0.00504697,"INCLINATION":101.7667,"RA_OF_ASC_NODE":77.3995,"ARG_OF_PERICENTER":95.8923,"MEAN_ANOMALY":58.3222,"EPHEMERIS_TYPE":0,"CLASSIFICATION_TYPE":"U","NORAD_CAT_ID":6213,"ELEMENT_SET_NO":999,"REV_AT_EPOCH":78314,"BSTAR":0.0077530095,"MEAN_MOTION_DOT":3.336e-5,"MEAN_MOTION_DDOT":0}]
